NORAD_CAT_ID,OBJECT_NAME,OBJECT_TYPE,EPOCH,MEAN_MOTION,ECCENTRICITY,INCLINATION,RA_OF_ASC_NODE,ARG_OF_PERICENTER,MEAN_ANOMALY,BSTAR,MEAN_MOTION_DOT,MEAN_MOTION_DDOT,TLE_LINE0,TLE_LINE1,TLE_LINE2,SEMIMAJOR_AXIS,PERIOD,APOGEE,PERIGEE,DECAYED
53617.0,STARLINK-4601,PAYLOAD,2023-04-16 19:55:05,15.0884123,8.54e-05,53.2152,303.074,81.9965,278.1124,0.00010525,1.388e-05,0.0,0 STARLINK-4601,1 53617U 22104AF  23106.82992656  .00001388  00000-0  10525-3 0  9996,2 53617  53.2152 303.0740 0000854  81.9965 278.1124 15.08841230 35931,6917.877,95.437,540.332,539.151,0.0
53617.0,STARLINK-4601,PAYLOAD,2023-04-17 13:24:20,15.0883268,0.0001026,53.2171,299.8051,95.8063,264.3046,-2.7976e-05,-7.33e-06,0.0,0 STARLINK-4601,1 53617U 22104AF  23107.55857209 -.00000733  00000-0 -27976-4 0  9995,2 53617  53.2171 299.8051 0001026  95.8063 264.3046 15.08832680 36046,6917.903,95.438,540.478,539.058,0.0
53617.0,STARLINK-4601,PAYLOAD,2023-04-17 19:45:52,15.08838722,0.0001103,53.217,298.6158,98.3981,261.7136,3.6086e-05,2.87e-06,0.0,0 STARLINK-4601,1 53617U 22104AF  23107.82352918  .00000287  00000-0  36086-4 0  9996,2 53617  53.2170 298.6158 0001103  98.3981 261.7136 15.08838722 35518,6917.884,95.438,540.512,538.986,0.0
53617.0,STARLINK-4601,PAYLOAD,2023-04-18 11:39:44,15.08834824,9.82e-05,53.2158,295.6383,85.6025,274.508,6.8896e-05,8.09e-06,0.0,0 STARLINK-4601,1 53617U 22104AF  23108.48593253  .00000809  00000-0  68896-4 0  9992,2 53617  53.2158 295.6383 0000982  85.6025 274.5080 15.08834824 36186,6917.896,95.438,540.441,539.082,0.0
53617.0,STARLINK-4601,PAYLOAD,2023-04-18 19:36:39,15.08842314,7.98e-05,53.2165,294.1522,90.4238,269.6846,0.00014189,1.971e-05,0.0,0 STARLINK-4601,1 53617U 22104AF  23108.81712866  .00001971  00000-0  14189-3 0  9998,2 53617  53.2165 294.1522 0000798  90.4238 269.6846 15.08842314 35668,6917.873,95.437,540.29,539.186,0.0
53617.0,STARLINK-4601,PAYLOAD,2023-04-19 13:05:54,15.08841042,6.28e-05,53.2181,290.882,87.0235,273.0829,-9.6842e-05,-1.828e-05,0.0,0 STARLINK-4601,1 53617U 22104AF  23109.54576810 -.00001828  00000-0 -96842-4 0  9996,2 53617  53.2181 290.8820 0000628  87.0235 273.0829 15.08841042 36344,6917.877,95.437,540.177,539.308,0.0
53617.0,STARLINK-4601,PAYLOAD,2023-04-19 16:16:41,15.08839193,0.0001297,53.2192,290.287,87.6065,272.5076,0.00013473,1.857e-05,0.0,0 STARLINK-4601,1 53617U 22104AF  23109.67825304  .00001857  00000-0  13473-3 0  9993,2 53617  53.2192 290.2870 0001297  87.6065 272.5076 15.08839193 36369,6917.883,95.438,540.645,538.851,0.0
53617.0,STARLINK-4601,PAYLOAD,2023-04-20 11:21:19,15.08834721,0.0001034,53.2181,286.7178,90.5966,269.5145,5.5347e-05,5.93e-06,0.0,0 STARLINK-4601,1 53617U 22104AF  23110.47313760  .00000593  00000-0  55347-4 0  9994,2 53617  53.2181 286.7178 0001034  90.5966 269.5145 15.08834721 36488,6917.897,95.438,540.477,539.046,0.0
53617.0,STARLINK-4601,PAYLOAD,2023-04-20 17:42:51,15.08835005,0.0001004,53.2179,285.5286,83.5767,276.534,4.8888e-05,4.9e-06,0.0,0 STARLINK-4601,1 53617U 22104AF  23110.73809836  .00000490  00000-0  48888-4 0  9995,2 53617  53.2179 285.5286 0001004  83.5767 276.5340 15.08835005 35952,6917.896,95.438,540.455,539.066,0.0
53617.0,STARLINK-4601,PAYLOAD,2023-04-20 19:18:14,15.08838424,0.0001032,53.2178,285.2307,81.1686,278.9423,4.6632e-05,4.54e-06,0.0,0 STARLINK-4601,1 53617U 22104AF  23110.80433598  .00000454  00000-0  46632-4 0  9996,2 53617  53.2178 285.2307 0001032  81.1686 278.9423 15.08838424 36538,6917.885,95.438,540.464,539.036,0.0
53617.0,STARLINK-4601,PAYLOAD,2023-04-21 17:33:38,15.08841936,0.0001044,53.2167,281.0674,71.2031,288.9074,0.00012523,1.706e-05,0.0,0 STARLINK-4601,1 53617U 22104AF  23111.73169079  .00001706  00000-0  12523-3 0  9991,2 53617  53.2167 281.0674 0001044  71.2031 288.9074 15.08841936 36102,6917.874,95.437,540.462,539.017,0.0
53617.0,STARLINK-4601,PAYLOAD,2023-04-22 04:41:19,15.08844583,0.0001115,53.2159,278.9869,72.658,287.4534,0.00012057,1.632e-05,0.0,0 STARLINK-4601,1 53617U 22104AF  23112.19536868  .00001632  00000-0  12057-3 0  9996,2 53617  53.2159 278.9869 0001115  72.6580 287.4534 15.08844583 36743,6917.866,95.437,540.503,538.96,0.0
53617.0,STARLINK-4601,PAYLOAD,2023-04-22 17:24:25,15.08842143,0.0001142,53.2163,276.6085,63.1991,296.9118,0.00013078,1.794e-05,0.0,0 STARLINK-4601,1 53617U 22104AF  23112.72528973  .00001794  00000-0  13078-3 0  9996,2 53617  53.2163 276.6085 0001142  63.1991 296.9118 15.08842143 36826,6917.874,95.437,540.529,538.949,0.0
53617.0,STARLINK-4601,PAYLOAD,2023-04-23 10:53:40,15.08837451,0.0001083,53.2164,273.3367,79.2989,280.8125,-1.2835e-05,-4.92e-06,0.0,0 STARLINK-4601,1 53617U 22104AF  23113.45393778 -.00000492  00000-0 -12835-4 0  9997,2 53617  53.2164 273.3367 0001083  79.2989 280.8125 15.08837451 36368,6917.888,95.438,540.502,539.004,0.0
53617.0,STARLINK-4601,PAYLOAD,2023-04-23 18:50:35,15.08843366,0.0001075,53.2162,271.8488,85.2893,274.8222,2.6304e-06,-2.46e-06,0.0,0 STARLINK-4601,1 53617U 22104AF  23113.78513337 -.00000246  00000-0  26304-5 0  9991,2 53617  53.2162 271.8488 0001075  85.2893 274.8222 15.08843366 36986,6917.87,95.437,540.479,538.991,0.0
53617.0,STARLINK-4601,PAYLOAD,2023-04-24 10:44:25,15.08855069,0.0001066,53.2165,268.8739,94.9982,265.1132,0.00018543,2.666e-05,0.0,0 STARLINK-4601,1 53617U 22104AF  23114.44752057  .00002666  00000-0  18543-3 0  9990,2 53617  53.2165 268.8739 0001066  94.9982 265.1132 15.08855069 36515,6917.834,95.437,540.437,538.962,0.0
53617.0,STARLINK-4601,PAYLOAD,2023-04-25 02:38:19,15.08817027,0.0002221,53.2171,265.9015,92.1381,267.9866,-9.6683e-05,-1.826e-05,0.0,0 STARLINK-4601,1 53617U 22104AF  23115.10995029 -.00001826  00000-0 -96683-4 0  9993,2 53617  53.2171 265.9015 0002221  92.1381 267.9866 15.08817027 36611,6917.951,95.439,541.352,538.279,0.0
53617.0,STARLINK-4601,PAYLOAD,2023-04-25 10:35:17,15.08794233,0.0001421,53.2169,264.4144,114.5222,245.5918,-0.00029037,-4.9e-05,0.0,0 STARLINK-4601,1 53617U 22104AF  23115.44117254 -.00004900  00000-0 -29037-3 0  9990,2 53617  53.2169 264.4144 0001421 114.5222 245.5918 15.08794233 36667,6918.02,95.44,540.868,538.902,0.0
53617.0,STARLINK-4601,PAYLOAD,2023-04-26 02:29:08,15.08805395,0.000133,53.2173,261.4398,114.6361,245.477,-0.00020994,-3.624e-05,0.0,0 STARLINK-4601,1 53617U 22104AF  23116.10357609 -.00003624  00000-0 -20994-3 0  9999,2 53617  53.2173 261.4398 0001330 114.6361 245.4770 15.08805395 37336,6917.986,95.44,540.771,538.931,0.0
53617.0,STARLINK-4601,PAYLOAD,2023-04-26 16:47:34,15.08852984,0.0001332,53.2179,258.7682,132.6575,227.453,-4.7148e-05,-1.038e-05,0.0,0 STARLINK-4601,1 53617U 22104AF  23116.69970403 -.00001038  00000-0 -47148-4 0  9994,2 53617  53.2179 258.7682 0001332 132.6575 227.4530 15.08852984 37426,6917.841,95.437,540.627,538.784,0.0
53617.0,STARLINK-4601,PAYLOAD,2023-04-27 10:16:48,15.08846084,0.000141,53.2193,255.4971,143.7358,216.373,0.00023614,3.473e-05,0.0,0 STARLINK-4601,1 53617U 22104AF  23117.42834016  .00003473  00000-0  23614-3 0  9999,2 53617  53.2193 255.4971 0001410 143.7358 216.3730 15.08846084 37531,6917.862,95.437,540.702,538.751,0.0
53617.0,STARLINK-4601,PAYLOAD,2023-04-28 02:10:39,15.08855363,4.7e-05,53.2174,252.5205,117.0557,243.0483,0.00019113,2.757e-05,0.0,0 STARLINK-4601,1 53617U 22104AF  23118.09073153  .00002757  00000-0  19113-3 0  9993,2 53617  53.2174 252.5205 0000470 117.0557 243.0483 15.08855363 37068,6917.833,95.437,540.024,539.373,0.0
53617.0,STARLINK-4601,PAYLOAD,2023-04-28 08:32:12,15.08849181,0.0001567,53.2181,251.3328,90.2799,269.8372,0.00013215,1.816e-05,0.0,0 STARLINK-4601,1 53617U 22104AF  23118.35569886  .00001816  00000-0  13215-3 0  9997,2 53617  53.2181 251.3328 0001567  90.2799 269.8372 15.08849181 37106,6917.852,95.437,540.801,538.633,0.0
53617.0,STARLINK-4601,PAYLOAD,2023-04-28 18:04:34,15.08816705,0.0001458,53.218,249.5484,96.9904,263.1254,-0.00032358,-5.431e-05,0.0,0 STARLINK-4601,1 53617U 22104AF  23118.75317467 -.00005431  00000-0 -32358-3 0  9995,2 53617  53.2180 249.5484 0001458  96.9904 263.1254 15.08816705 37165,6917.952,95.439,540.825,538.808,0.0
53617.0,STARLINK-4601,PAYLOAD,2023-04-29 13:09:08,15.08850584,6.12e-05,53.217,245.9804,75.1936,284.9124,-6.5907e-05,-1.337e-05,0.0,0 STARLINK-4601,1 53617U 22104AF  23119.54802047 -.00001337  00000-0 -65907-4 0  9994,2 53617  53.2170 245.9804 0000612  75.1936 284.9124 15.08850584 37288,6917.848,95.437,540.136,539.29,0.0
53617.0,STARLINK-4601,PAYLOAD,2023-04-30 12:59:56,15.08839202,9.81e-05,53.2173,241.5194,81.3426,278.7677,2.297e-05,7.8e-07,0.0,0 STARLINK-4601,1 53617U 22104AF  23120.54162170  .00000078  00000-0  22970-4 0  9994,2 53617  53.2173 241.5194 0000981  81.3426 278.7677 15.08839202 38006,6917.883,95.438,540.426,539.069,0.0
53617.0,STARLINK-4601,PAYLOAD,2023-04-30 14:35:19,15.0884122,9.77e-05,53.2173,241.2205,96.7221,263.3882,6.205e-06,-1.89e-06,0.0,0 STARLINK-4601,1 53617U 22104AF  23120.60786023 -.00000189  00000-0  62050-5 0  9998,2 53617  53.2173 241.2205 0000977  96.7221 263.3882 15.08841220 37442,6917.877,95.437,540.418,539.066,0.0
53617.0,STARLINK-4601,PAYLOAD,2023-05-01 12:50:43,15.08833241,0.0001043,53.2167,237.0533,115.9695,244.1404,-4.4318e-05,-9.93e-06,0.0,0 STARLINK-4601,1 53617U 22104AF  23121.53522744 -.00000993  00000-0 -44318-4 0  9999,2 53617  53.2167 237.0533 0001043 115.9695 244.1404 15.08833241 37582,6917.901,95.438,540.488,539.045,0.0
53617.0,STARLINK-4601,PAYLOAD,2023-05-01 17:36:53,15.08834211,0.0001073,53.2167,236.1611,116.0077,244.1026,-3.6522e-05,-8.69e-06,0.0,0 STARLINK-4601,1 53617U 22104AF  23121.73394685 -.00000869  00000-0 -36522-4 0  9992,2 53617  53.2167 236.1611 0001073 116.0077 244.1026 15.08834211 38183,6917.898,95.438,540.505,539.021,0.0
53617.0,STARLINK-4601,PAYLOAD,2023-05-02 12:41:29,15.08846939,9.61e-05,53.2168,232.5934,104.9709,255.139,0.00012432,1.692e-05,0.0,0 STARLINK-4601,1 53617U 22104AF  23122.52881483  .00001692  00000-0  12432-3 0  9993,2 53617  53.2168 232.5934 0000961 104.9709 255.1390 15.08846939 37731,6917.859,95.437,540.389,539.059,0.0
